{
  "type": "FeatureCollection",
  "name": "MEDIATION regions",
  "crs": {
    "type": "name",
    "properties": {
      "name": "urn:ogc:def:crs:OGC:1.3:CRS84"
    }
  },
  "features": [
    {
      "type": "Feature",
      "properties": {
        "code": "NWMED",
        "name": "North-western Mediterranean",
        "category": "regional",
        "source_file": "msk_NWMED_OMED11i.nc",
        "centroid_lon": 5.097407,
        "centroid_lat": 41.467075,
        "bbox": [
          -0.375,
          38.75,
          9.25,
          44.375
        ]
      },
      "geometry": {
        "type": "Polygon",
        "coordinates": [
          [
            [
              0.1875,
              38.75
            ],
            [
              0.0625,
              38.875
            ],
            [
              -0.0625,
              38.875
            ],
            [
              -0.125,
              38.9375
            ],
            [
              -0.125,
              39.0625
            ],
            [
              -0.375,
              39.3125
            ],
            [
              -0.375,
              39.4375
            ],
            [
              0.0,
              39.8125
            ],
            [
              0.0,
              39.9375
            ],
            [
              0.6875,
              40.625
            ],
            [
              0.9375,
              40.625
            ],
            [
              1.0,
              40.6875
            ],
            [
              0.875,
              40.8125
            ],
            [
              0.875,
              40.9375
            ],
            [
              1.0625,
              41.125
            ],
            [
              1.5625,
              41.125
            ],
            [
              1.6875,
              41.25
            ],
            [
              2.0625,
              41.25
            ],
            [
              2.3125,
              41.5
            ],
            [
              2.5625,
              41.5
            ],
            [
              2.6875,
              41.625
            ],
            [
              2.8125,
              41.625
            ],
            [
              2.9375,
              41.75
            ],
            [
              3.0625,
              41.75
            ],
            [
              3.25,
              41.9375
            ],
            [
              3.25,
              42.1875
            ],
            [
              3.375,
              42.3125
            ],
            [
              3.0,
              42.6875
            ],
            [
              3.125,
              42.8125
            ],
            [
              3.125,
              43.0625
            ],
            [
              3.1875,
              43.125
            ],
            [
              3.3125,
              43.125
            ],
            [
              3.5625,
              43.375
            ],
            [
              3.6875,
              43.375
            ],
            [
              3.8125,
              43.5
            ],
            [
              4.4375,
              43.5
            ],
            [
              4.5625,
              43.375
            ],
            [
              5.3125,
              43.375
            ],
            [
              5.4375,
              43.25
            ],
            [
              5.6875,
              43.25
            ],
            [
              5.8125,
              43.125
            ],
            [
              6.6875,
              43.125
            ],
            [
              6.75,
              43.1875
            ],
            [
              6.75,
              43.3125
            ],
            [
              6.9375,
              43.5
            ],
            [
              7.0625,
              43.5
            ],
            [
              7.1875,
              43.625
            ],
            [
              7.3125,
              43.625
            ],
            [
              7.4375,
              43.75
            ],
            [
              7.6875,
              43.75
            ],
            [
              7.8125,
              43.875
            ],
            [
              8.0625,
              43.875
            ],
            [
              8.5625,
              44.375
            ],
            [
              9.1875,
              44.375
            ],
            [
              9.25,
              44.3125
            ],
            [
              9.25,
              42.8125
            ],
            [
              9.1875,
              42.75
            ],
            [
              9.0625,
              42.75
            ],
            [
              8.9375,
              42.625
            ],
            [
              8.8125,
              42.625
            ],
            [
              8.625,
              42.4375
            ],
            [
              8.625,
              42.1875
            ],
            [
              8.75,
              42.0625
            ],
            [
              8.625,
              41.9375
            ],
            [
              8.875,
              41.6875
            ],
            [
              8.75,
              41.5625
            ],
            [
              8.8125,
              41.5
            ],
            [
              8.9375,
              41.5
            ],
            [
              9.0625,
              41.375
            ],
            [
              9.1875,
              41.375
            ],
            [
              9.25,
              41.3125
            ],
            [
              9.0625,
              41.125
            ],
            [
              8.9375,
              41.125
            ],
            [
              8.875,
              41.0625
            ],
            [
              8.875,
              40.9375
            ],
            [
              8.8125,
              40.875
            ],
            [
              8.4375,
              40.875
            ],
            [
              8.375,
              40.9375
            ],
            [
              8.375,
              41.0625
            ],
            [
              8.3125,
              41.125
            ],
            [
              8.25,
              41.0625
            ],
            [
              8.25,
              40.9375
            ],
            [
              8.125,
              40.8125
            ],
            [
              8.125,
              40.6875
            ],
            [
              8.5,
              40.3125
            ],
            [
              8.375,
              40.1875
            ],
            [
              8.375,
              40.0625
            ],
            [
              8.3125,
              40.0
            ],
            [
              4.3125,
              40.0
            ],
            [
              4.1875,
              40.125
            ],
            [
              3.8125,
              40.125
            ],
            [
              3.75,
              40.0625
            ],
            [
              3.75,
              39.9375
            ],
            [
              3.6875,
              39.875
            ],
            [
              3.3125,
              39.875
            ],
            [
              3.1875,
              40.0
            ],
            [
              2.9375,
              40.0
            ],
            [
              2.8125,
              39.875
            ],
            [
              2.6875,
              39.875
            ],
            [
              2.4375,
              39.625
            ],
            [
              2.3125,
              39.625
            ],
            [
              2.25,
              39.5625
            ],
            [
              2.375,
              39.4375
            ],
            [
              2.3125,
              39.375
            ],
            [
              2.0625,
              39.375
            ],
            [
              1.9375,
              39.25
            ],
            [
              1.8125,
              39.25
            ],
            [
              1.6875,
              39.125
            ],
            [
              1.3125,
              39.125
            ],
            [
              1.0625,
              38.875
            ],
            [
              0.5625,
              38.875
            ],
            [
              0.4375,
              38.75
            ],
            [
              0.1875,
              38.75
            ]
          ]
        ]
      }
    },
    {
      "type": "Feature",
      "properties": {
        "code": "NWMED_cst",
        "name": "North-western Mediterranean coast",
        "category": "coastal",
        "source_file": "msk_NWMED_cst.nc",
        "centroid_lon": 4.133615,
        "centroid_lat": 42.161684,
        "bbox": [
          -0.375,
          38.75,
          9.25,
          44.375
        ]
      },
      "geometry": {
        "type": "Polygon",
        "coordinates": [
          [
            [
              0.1875,
              38.75
            ],
            [
              0.0625,
              38.875
            ],
            [
              -0.0625,
              38.875
            ],
            [
              -0.125,
              38.9375
            ],
            [
              -0.125,
              39.0625
            ],
            [
              -0.375,
              39.3125
            ],
            [
              -0.375,
              39.4375
            ],
            [
              0.0,
              39.8125
            ],
            [
              0.0,
              39.9375
            ],
            [
              0.6875,
              40.625
            ],
            [
              0.9375,
              40.625
            ],
            [
              1.0,
              40.6875
            ],
            [
              0.875,
              40.8125
            ],
            [
              0.875,
              40.9375
            ],
            [
              1.0625,
              41.125
            ],
            [
              1.5625,
              41.125
            ],
            [
              1.6875,
              41.25
            ],
            [
              2.0625,
              41.25
            ],
            [
              2.3125,
              41.5
            ],
            [
              2.5625,
              41.5
            ],
            [
              2.6875,
              41.625
            ],
            [
              2.8125,
              41.625
            ],
            [
              2.9375,
              41.75
            ],
            [
              3.0625,
              41.75
            ],
            [
              3.25,
              41.9375
            ],
            [
              3.25,
              42.1875
            ],
            [
              3.375,
              42.3125
            ],
            [
              3.0,
              42.6875
            ],
            [
              3.125,
              42.8125
            ],
            [
              3.125,
              43.0625
            ],
            [
              3.1875,
              43.125
            ],
            [
              3.3125,
              43.125
            ],
            [
              3.5625,
              43.375
            ],
            [
              3.6875,
              43.375
            ],
            [
              3.8125,
              43.5
            ],
            [
              4.4375,
              43.5
            ],
            [
              4.5625,
              43.375
            ],
            [
              5.3125,
              43.375
            ],
            [
              5.4375,
              43.25
            ],
            [
              5.6875,
              43.25
            ],
            [
              5.8125,
              43.125
            ],
            [
              6.6875,
              43.125
            ],
            [
              6.75,
              43.1875
            ],
            [
              6.75,
              43.3125
            ],
            [
              6.9375,
              43.5
            ],
            [
              7.0625,
              43.5
            ],
            [
              7.1875,
              43.625
            ],
            [
              7.3125,
              43.625
            ],
            [
              7.4375,
              43.75
            ],
            [
              7.6875,
              43.75
            ],
            [
              7.8125,
              43.875
            ],
            [
              8.0625,
              43.875
            ],
            [
              8.5625,
              44.375
            ],
            [
              9.1875,
              44.375
            ],
            [
              9.25,
              44.3125
            ],
            [
              9.25,
              43.8125
            ],
            [
              9.1875,
              43.75
            ],
            [
              9.0625,
              43.875
            ],
            [
              8.5625,
              43.875
            ],
            [
              8.0625,
              43.375
            ],
            [
              7.8125,
              43.375
            ],
            [
              7.6875,
              43.25
            ],
            [
              7.4375,
              43.25
            ],
            [
              7.3125,
              43.125
            ],
            [
              7.1875,
              43.125
            ],
            [
              7.0625,
              43.0
            ],
            [
              6.9375,
              43.0
            ],
            [
              6.5625,
              42.625
            ],
            [
              5.9375,
              42.625
            ],
            [
              5.8125,
              42.5
            ],
            [
              5.6875,
              42.625
            ],
            [
              5.5625,
              42.625
            ],
            [
              5.1875,
              43.0
            ],
            [
              5.0625,
              43.0
            ],
            [
              4.9375,
              42.875
            ],
            [
              4.6875,
              42.875
            ],
            [
              4.5625,
              43.0
            ],
            [
              3.8125,
              43.0
            ],
            [
              3.6875,
              42.875
            ],
            [
              3.5625,
              42.875
            ],
            [
              3.5,
              42.8125
            ],
            [
              3.5,
              42.5625
            ],
            [
              3.75,
              42.3125
            ],
            [
              3.625,
              42.1875
            ],
            [
              3.75,
              42.0625
            ],
            [
              3.75,
              41.9375
            ],
            [
              3.0625,
              41.25
            ],
            [
              2.9375,
              41.25
            ],
            [
              2.8125,
              41.125
            ],
            [
              2.5625,
              41.125
            ],
            [
              2.4375,
              41.0
            ],
            [
              2.3125,
              41.0
            ],
            [
              2.0625,
              40.75
            ],
            [
              1.5625,
              40.75
            ],
            [
              1.4375,
              40.625
            ],
            [
              1.3125,
              40.625
            ],
            [
              0.8125,
              40.125
            ],
            [
              0.6875,
              40.125
            ],
            [
              0.25,
              39.6875
            ],
            [
              0.25,
              39.5625
            ],
            [
              0.125,
              39.4375
            ],
            [
              0.25,
              39.3125
            ],
            [
              0.25,
              39.1875
            ],
            [
              0.5,
              38.9375
            ],
            [
              0.5,
              38.8125
            ],
            [
              0.4375,
              38.75
            ],
            [
              0.1875,
              38.75
            ]
          ]
        ]
      }
    },
    {
      "type": "Feature",
      "properties": {
        "code": "France_cst",
        "name": "French Mediterranean coast",
        "category": "coastal",
        "source_file": "msk_France_cst.nc",
        "centroid_lon": 5.266874,
        "centroid_lat": 43.052246,
        "bbox": [
          3.0,
          42.125,
          7.75,
          43.75
        ]
      },
      "geometry": {
        "type": "Polygon",
        "coordinates": [
          [
            [
              3.3125,
              42.125
            ],
            [
              3.25,
              42.1875
            ],
            [
              3.375,
              42.3125
            ],
            [
              3.0,
              42.6875
            ],
            [
              3.125,
              42.8125
            ],
            [
              3.125,
              43.0625
            ],
            [
              3.1875,
              43.125
            ],
            [
              3.3125,
              43.125
            ],
            [
              3.5625,
              43.375
            ],
            [
              3.6875,
              43.375
            ],
            [
              3.8125,
              43.5
            ],
            [
              4.4375,
              43.5
            ],
            [
              4.5625,
              43.375
            ],
            [
              5.3125,
              43.375
            ],
            [
              5.4375,
              43.25
            ],
            [
              5.6875,
              43.25
            ],
            [
              5.8125,
              43.125
            ],
            [
              6.6875,
              43.125
            ],
            [
              6.75,
              43.1875
            ],
            [
              6.75,
              43.3125
            ],
            [
              6.9375,
              43.5
            ],
            [
              7.0625,
              43.5
            ],
            [
              7.1875,
              43.625
            ],
            [
              7.3125,
              43.625
            ],
            [
              7.4375,
              43.75
            ],
            [
              7.6875,
              43.75
            ],
            [
              7.75,
              43.6875
            ],
            [
              7.75,
              43.3125
            ],
            [
              7.6875,
              43.25
            ],
            [
              7.4375,
              43.25
            ],
            [
              7.3125,
              43.125
            ],
            [
              7.1875,
              43.125
            ],
            [
              7.0625,
              43.0
            ],
            [
              6.9375,
              43.0
            ],
            [
              6.5625,
              42.625
            ],
            [
              5.9375,
              42.625
            ],
            [
              5.8125,
              42.5
            ],
            [
              5.6875,
              42.625
            ],
            [
              5.5625,
              42.625
            ],
            [
              5.1875,
              43.0
            ],
            [
              5.0625,
              43.0
            ],
            [
              4.9375,
              42.875
            ],
            [
              4.6875,
              42.875
            ],
            [
              4.5625,
              43.0
            ],
            [
              3.8125,
              43.0
            ],
            [
              3.6875,
              42.875
            ],
            [
              3.5625,
              42.875
            ],
            [
              3.5,
              42.8125
            ],
            [
              3.5,
              42.5625
            ],
            [
              3.75,
              42.3125
            ],
            [
              3.5625,
              42.125
            ],
            [
              3.3125,
              42.125
            ]
          ]
        ]
      }
    },
    {
      "type": "Feature",
      "properties": {
        "code": "GFCM_Corse",
        "name": "GFCM Corsica",
        "category": "gfcm",
        "source_file": "msk_GFCM_Corse.nc",
        "centroid_lon": 8.781757,
        "centroid_lat": 42.283152,
        "bbox": [
          7.625,
          41.25,
          9.75,
          43.25
        ]
      },
      "geometry": {
        "type": "Polygon",
        "coordinates": [
          [
            [
              8.0,
              41.3125
            ],
            [
              8.0,
              41.5625
            ],
            [
              7.875,
              41.6875
            ],
            [
              7.875,
              42.1875
            ],
            [
              7.75,
              42.3125
            ],
            [
              7.75,
              42.9375
            ],
            [
              7.625,
              43.0625
            ],
            [
              7.625,
              43.1875
            ],
            [
              7.6875,
              43.25
            ],
            [
              9.6875,
              43.25
            ],
            [
              9.75,
              43.1875
            ],
            [
              9.75,
              41.3125
            ],
            [
              9.6875,
              41.25
            ],
            [
              8.0625,
              41.25
            ],
            [
              8.0,
              41.3125
            ]
          ]
        ]
      }
    },
    {
      "type": "Feature",
      "properties": {
        "code": "GFCM_GoL",
        "name": "GFCM Gulf of Lion",
        "category": "gfcm",
        "source_file": "msk_GFCM_GoL.nc",
        "centroid_lon": 5.739454,
        "centroid_lat": 42.60008,
        "bbox": [
          3.0,
          41.375,
          8.0,
          43.75
        ]
      },
      "geometry": {
        "type": "Polygon",
        "coordinates": [
          [
            [
              7.5625,
              41.375
            ],
            [
              7.4375,
              41.5
            ],
            [
              7.0625,
              41.5
            ],
            [
              6.9375,
              41.625
            ],
            [
              6.4375,
              41.625
            ],
            [
              6.3125,
              41.75
            ],
            [
              5.9375,
              41.75
            ],
            [
              5.8125,
              41.875
            ],
            [
              5.4375,
              41.875
            ],
            [
              5.3125,
              42.0
            ],
            [
              4.8125,
              42.0
            ],
            [
              4.6875,
              42.125
            ],
            [
              4.3125,
              42.125
            ],
            [
              4.1875,
              42.25
            ],
            [
              3.6875,
              42.25
            ],
            [
              3.5625,
              42.375
            ],
            [
              3.1875,
              42.375
            ],
            [
              3.0,
              42.5625
            ],
            [
              3.0,
              43.0625
            ],
            [
              3.0625,
              43.125
            ],
            [
              3.1875,
              43.125
            ],
            [
              3.3125,
              43.25
            ],
            [
              3.4375,
              43.25
            ],
            [
              3.5625,
              43.375
            ],
            [
              3.6875,
              43.375
            ],
            [
              3.8125,
              43.5
            ],
            [
              4.5625,
              43.5
            ],
            [
              4.6875,
              43.375
            ],
            [
              4.9375,
              43.375
            ],
            [
              5.0625,
              43.5
            ],
            [
              5.1875,
              43.5
            ],
            [
              5.5625,
              43.125
            ],
            [
              6.4375,
              43.125
            ],
            [
              6.6875,
              43.375
            ],
            [
              6.8125,
              43.375
            ],
            [
              6.9375,
              43.5
            ],
            [
              7.0625,
              43.5
            ],
            [
              7.3125,
              43.75
            ],
            [
              7.4375,
              43.75
            ],
            [
              7.625,
              43.5625
            ],
            [
              7.625,
              43.0625
            ],
            [
              7.75,
              42.9375
            ],
            [
              7.75,
              42.3125
            ],
            [
              7.875,
              42.1875
            ],
            [
              7.875,
              41.6875
            ],
            [
              8.0,
              41.5625
            ],
            [
              8.0,
              41.4375
            ],
            [
              7.9375,
              41.375
            ],
            [
              7.5625,
              41.375
            ]
          ]
        ]
      }
    },
    {
      "type": "Feature",
      "properties": {
        "code": "GFCM_Lig_Tyr",
        "name": "GFCM Ligurian–Tyrrhenian",
        "category": "gfcm",
        "source_file": "msk_GFCM_Lig_Tyr.nc",
        "centroid_lon": 10.12943,
        "centroid_lat": 42.670937,
        "bbox": [
          7.5,
          41.25,
          13.0,
          44.375
        ]
      },
      "geometry": {
        "type": "Polygon",
        "coordinates": [
          [
            [
              9.75,
              41.3125
            ],
            [
              9.75,
              43.1875
            ],
            [
              9.6875,
              43.25
            ],
            [
              7.6875,
              43.25
            ],
            [
              7.625,
              43.3125
            ],
            [
              7.625,
              43.5625
            ],
            [
              7.5,
              43.6875
            ],
            [
              7.5625,
              43.75
            ],
            [
              7.6875,
              43.75
            ],
            [
              7.8125,
              43.875
            ],
            [
              8.0625,
              43.875
            ],
            [
              8.5625,
              44.375
            ],
            [
              9.0625,
              44.375
            ],
            [
              9.1875,
              44.25
            ],
            [
              9.3125,
              44.375
            ],
            [
              9.4375,
              44.25
            ],
            [
              9.5625,
              44.25
            ],
            [
              9.8125,
              44.0
            ],
            [
              10.1875,
              44.0
            ],
            [
              10.25,
              43.9375
            ],
            [
              10.25,
              43.5625
            ],
            [
              10.5,
              43.3125
            ],
            [
              10.5,
              43.0625
            ],
            [
              10.5625,
              43.0
            ],
            [
              10.6875,
              43.0
            ],
            [
              10.75,
              42.9375
            ],
            [
              10.75,
              42.8125
            ],
            [
              10.8125,
              42.75
            ],
            [
              10.9375,
              42.75
            ],
            [
              11.125,
              42.5625
            ],
            [
              11.125,
              42.4375
            ],
            [
              11.1875,
              42.375
            ],
            [
              11.5625,
              42.375
            ],
            [
              11.75,
              42.1875
            ],
            [
              11.75,
              42.0625
            ],
            [
              11.8125,
              42.0
            ],
            [
              12.0625,
              42.0
            ],
            [
              12.5625,
              41.5
            ],
            [
              12.6875,
              41.5
            ],
            [
              12.8125,
              41.375
            ],
            [
              12.9375,
              41.375
            ],
            [
              13.0,
              41.3125
            ],
            [
              12.9375,
              41.25
            ],
            [
              9.8125,
              41.25
            ],
            [
              9.75,
              41.3125
            ]
          ]
        ]
      }
    },
    {
      "type": "Feature",
      "properties": {
        "code": "GFCM_NSpain",
        "name": "GFCM Northern Spain",
        "category": "gfcm",
        "source_file": "msk_GFCM_NSpain.nc",
        "centroid_lon": 2.420833,
        "centroid_lat": 40.262394,
        "bbox": [
          -1.0,
          37.0,
          6.0,
          42.375
        ]
      },
      "geometry": {
        "type": "Polygon",
        "coordinates": [
          [
            [
              -0.9375,
              37.0
            ],
            [
              -1.0,
              37.0625
            ],
            [
              -1.0,
              37.4375
            ],
            [
              -0.875,
              37.5625
            ],
            [
              -0.875,
              37.6875
            ],
            [
              -0.75,
              37.8125
            ],
            [
              -0.75,
              37.9375
            ],
            [
              -0.5,
              38.1875
            ],
            [
              -0.5,
              38.3125
            ],
            [
              -0.3125,
              38.5
            ],
            [
              -0.0625,
              38.5
            ],
            [
              0.125,
              38.6875
            ],
            [
              0.125,
              38.8125
            ],
            [
              0.0625,
              38.875
            ],
            [
              -0.0625,
              38.875
            ],
            [
              -0.25,
              39.0625
            ],
            [
              -0.25,
              39.3125
            ],
            [
              -0.375,
              39.4375
            ],
            [
              -0.25,
              39.5625
            ],
            [
              -0.25,
              39.6875
            ],
            [
              0.5,
              40.4375
            ],
            [
              0.5,
              40.5625
            ],
            [
              0.5625,
              40.625
            ],
            [
              0.8125,
              40.625
            ],
            [
              0.875,
              40.6875
            ],
            [
              0.75,
              40.8125
            ],
            [
              1.0625,
              41.125
            ],
            [
              1.5625,
              41.125
            ],
            [
              1.6875,
              41.25
            ],
            [
              2.0625,
              41.25
            ],
            [
              2.3125,
              41.5
            ],
            [
              2.4375,
              41.5
            ],
            [
              2.5625,
              41.625
            ],
            [
              2.8125,
              41.625
            ],
            [
              2.9375,
              41.75
            ],
            [
              3.0625,
              41.75
            ],
            [
              3.25,
              41.9375
            ],
            [
              3.25,
              42.0625
            ],
            [
              3.125,
              42.1875
            ],
            [
              3.1875,
              42.25
            ],
            [
              3.3125,
              42.25
            ],
            [
              3.4375,
              42.375
            ],
            [
              3.5625,
              42.375
            ],
            [
              3.6875,
              42.25
            ],
            [
              4.1875,
              42.25
            ],
            [
              4.3125,
              42.125
            ],
            [
              4.6875,
              42.125
            ],
            [
              4.8125,
              42.0
            ],
            [
              5.3125,
              42.0
            ],
            [
              5.4375,
              41.875
            ],
            [
              5.8125,
              41.875
            ],
            [
              6.0,
              41.6875
            ],
            [
              6.0,
              40.5625
            ],
            [
              5.9375,
              40.5
            ],
            [
              2.0625,
              40.5
            ],
            [
              2.0,
              40.4375
            ],
            [
              2.0,
              40.0625
            ],
            [
              1.9375,
              40.0
            ],
            [
              1.5625,
              40.0
            ],
            [
              1.5,
              39.9375
            ],
            [
              1.5,
              39.5625
            ],
            [
              1.4375,
              39.5
            ],
            [
              0.5625,
              39.5
            ],
            [
              0.5,
              39.4375
            ],
            [
              0.5,
              37.0625
            ],
            [
              0.4375,
              37.0
            ],
            [
              -0.9375,
              37.0
            ]
          ]
        ]
      }
    },
    {
      "type": "Feature",
      "properties": {
        "code": "MPA_Calanques",
        "name": "Calanques MPA",
        "category": "mpa",
        "source_file": "msk_MPA_Calanques.nc",
        "centroid_lon": 5.364035,
        "centroid_lat": 43.101974,
        "bbox": [
          5.0,
          42.875,
          5.625,
          43.25
        ]
      },
      "geometry": {
        "type": "Polygon",
        "coordinates": [
          [
            [
              5.5625,
              42.875
            ],
            [
              5.4375,
              43.0
            ],
            [
              5.0625,
              43.0
            ],
            [
              5.0,
              43.0625
            ],
            [
              5.1875,
              43.25
            ],
            [
              5.5625,
              43.25
            ],
            [
              5.625,
              43.1875
            ],
            [
              5.625,
              42.9375
            ],
            [
              5.5625,
              42.875
            ]
          ]
        ]
      }
    },
    {
      "type": "Feature",
      "properties": {
        "code": "MPA_Corse",
        "name": "Corsica MPA",
        "category": "mpa",
        "source_file": "msk_MPA_Corse.nc",
        "centroid_lon": 8.935159,
        "centroid_lat": 43.066245,
        "bbox": [
          8.125,
          42.75,
          9.625,
          43.5
        ]
      },
      "geometry": {
        "type": "Polygon",
        "coordinates": [
          [
            [
              8.6875,
              42.75
            ],
            [
              8.5625,
              42.875
            ],
            [
              8.3125,
              42.875
            ],
            [
              8.125,
              43.0625
            ],
            [
              8.1875,
              43.125
            ],
            [
              8.3125,
              43.125
            ],
            [
              8.4375,
              43.25
            ],
            [
              8.5625,
              43.25
            ],
            [
              8.6875,
              43.375
            ],
            [
              8.8125,
              43.375
            ],
            [
              8.9375,
              43.5
            ],
            [
              9.0625,
              43.5
            ],
            [
              9.3125,
              43.25
            ],
            [
              9.4375,
              43.25
            ],
            [
              9.625,
              43.0625
            ],
            [
              9.625,
              42.8125
            ],
            [
              9.5625,
              42.75
            ],
            [
              9.5,
              42.8125
            ],
            [
              9.5,
              42.9375
            ],
            [
              9.4375,
              43.0
            ],
            [
              9.375,
              42.9375
            ],
            [
              9.375,
              42.8125
            ],
            [
              9.3125,
              42.75
            ],
            [
              8.6875,
              42.75
            ]
          ]
        ]
      }
    },
    {
      "type": "Feature",
      "properties": {
        "code": "MPA_GoL",
        "name": "Gulf of Lion MPA",
        "category": "mpa",
        "source_file": "msk_MPA_GoL.nc",
        "centroid_lon": 3.448539,
        "centroid_lat": 42.694807,
        "bbox": [
          3.0,
          42.375,
          3.875,
          43.0
        ]
      },
      "geometry": {
        "type": "Polygon",
        "coordinates": [
          [
            [
              3.1875,
              42.375
            ],
            [
              3.0,
              42.5625
            ],
            [
              3.0,
              42.9375
            ],
            [
              3.0625,
              43.0
            ],
            [
              3.8125,
              43.0
            ],
            [
              3.875,
              42.9375
            ],
            [
              3.875,
              42.4375
            ],
            [
              3.8125,
              42.375
            ],
            [
              3.1875,
              42.375
            ]
          ]
        ]
      }
    },
    {
      "type": "Feature",
      "properties": {
        "code": "MPA_PCros",
        "name": "Port-Cros MPA",
        "category": "mpa",
        "source_file": "msk_MPA_PCros.nc",
        "centroid_lon": 6.375,
        "centroid_lat": 43.040761,
        "bbox": [
          6.0,
          42.875,
          6.75,
          43.25
        ]
      },
      "geometry": {
        "type": "Polygon",
        "coordinates": [
          [
            [
              6.0625,
              42.875
            ],
            [
              6.0,
              42.9375
            ],
            [
              6.0,
              43.0625
            ],
            [
              6.0625,
              43.125
            ],
            [
              6.4375,
              43.125
            ],
            [
              6.5625,
              43.25
            ],
            [
              6.6875,
              43.25
            ],
            [
              6.75,
              43.1875
            ],
            [
              6.75,
              43.0625
            ],
            [
              6.6875,
              43.0
            ],
            [
              6.5625,
              43.0
            ],
            [
              6.4375,
              42.875
            ],
            [
              6.0625,
              42.875
            ]
          ]
        ]
      }
    }
  ]
}